BIRKELAND               
1 55015U 23001G   26167.56172420  .00007388  00000+0  18667-3 0  9997
2 55015  97.3347 235.5298 0008349 107.0819 253.1342 15.40068075192250
ION SCV-008             
1 55051U 23001AU  26167.51785225  .00005249  00000+0  19110-3 0  9993
2 55051  97.5715 263.8242 0015082  20.8046 339.3804 15.28570051191235
ION SCV-007             
1 55060U 23001BD  26167.18214417  .00000379  00000+0  60246-4 0  9992
2 55060  97.9006 230.2170 0011895 345.6667  14.4205 14.77552673186104
HUYGENS                 
1 55093U 23001CN  26167.56181084  .00007491  00000+0  18907-3 0  9991
2 55093  97.3252 234.7606 0011096  88.2486 272.0031 15.40068055192273
SHARJAHSAT-1            
1 55104U 23001CZ  26167.59604359  .00017278  00000+0  32001-3 0  9997
2 55104  97.3173 236.3535 0007071 104.8638 255.3396 15.49042885192404
HORUS 1                 
1 55690U 23025A   26167.62736521  .00004758  00000+0  20375-3 0  9994
2 55690  97.3465 242.2352 0001307 149.4528 210.6785 15.23257511183963
HORUS 2                 
1 55844U 23032A   26167.59736603  .00004736  00000+0  20185-3 0  9995
2 55844  97.3536 243.0099 0002248 106.1526 253.9958 15.23421882181394
GLOBAL-19               
1 55982U 23041B   26166.41021281  .00009350  00000+0  25106-3 0  9992
2 55982  41.9998 212.2489 0009122 350.7083   9.3586 15.37989803181654
BRO-9                   
1 56185U 23054H   26167.01480650  .00813769  34119-3  11793-2 0  9993
2 56185  97.2917  85.4611 0008110 166.8478 193.3017 16.05297283178909
ION SCV-010             
1 56192U 23054Q   26167.56988056  .00003737  00000+0  14706-3 0  9996
2 56192  97.3781  57.0793 0012111 199.3566 160.7214 15.26192080176106
TELEOS-2                
1 56310U 23057C   26167.62289691  .00000688  00000+0  30272-7 0  9999
2 56310   9.9841 208.2717 0000149 302.3010  57.7189 14.96410772172714
SNIPE 4                 
1 56744U 23072B   26167.56517138  .00016628  00000+0  38744-3 0  9999
2 56744  97.5244  13.5505 0004455 341.0926  19.0154 15.42330532170018
SNIPE 2                 
1 56745U 23072C   26167.60980752  .00019880  00000+0  39747-3 0  9998
2 56745  97.5239  16.6364 0004241  16.2694 343.8691 15.46824517170150
2023-072G               
1 56749U 23072G   26167.61165583  .00025477  00000+0  44681-3 0  9992
2 56749  97.4897  15.4410 0002907  10.8342 349.2972 15.50545171170376
GEISAT PRECURSOR        
1 56934U 23084C   26167.63204789  .00005870  00000+0  17734-3 0  9999
2 56934  97.6226 308.5662 0004992   0.0436   0.0806 15.34643877167442
BLACKJACK ACES-3        
1 56950U 23084U   26167.64295413  .00004483  00000+0  22097-3 0  9999
2 56950  97.6215 302.8293 0002610  38.8667 321.2754 15.18466226167088
BLACKJACK ACES-2        
1 56955U 23084Z   26167.38549682  .00005890  00000+0  28860-3 0  9992
2 56955  97.6212 302.6546 0001050  73.6616 286.4734 15.18536620167050
BLACKJACK ACES-1        
1 56956U 23084AA  26167.63701678  .00005694  00000+0  27863-3 0  9990
2 56956  97.6203 302.6820 0001282 103.8562 256.2814 15.18599841116815
ION SCV-011             
1 56957U 23084AB  26167.60814389  .00004255  00000+0  15485-3 0  9991
2 56957  98.1375 354.8335 0008048  47.4517 312.7399 15.28841362165721
GHOST-3                 
1 56958U 23084AC  26167.38773502  .00014494  00000+0  28032-3 0  9996
2 56958  97.6215 315.9163 0005513 297.3166  62.7522 15.47857536167897
TOMORROW-R2             
1 56962U 23084AG  26167.42252303  .00496158  12304-3  61512-3 0  9992
2 56962  97.6058 331.5493 0008369 243.9184 116.1237 16.07762760168930
AFR-1                   
1 56964U 23084AJ  26167.64316009  .00003818  00000+0  14015-3 0  9991
2 56964  97.6277 304.3205 0010003 348.9393  11.1624 15.28551385167147
METEOR-M2 3             
1 57166U 23091A   26167.60663549  .00000006  00000+0  21337-4 0  9996
2 57166  98.6090 222.5968 0004322 156.9353 203.2021 14.24046773154431
UMKA 1 (RS40S)          
1 57172U 23091G   26167.56754940  .00005503  00000+0  25207-3 0  9990
2 57172  97.5049 226.2671 0014228 119.5905 240.6750 15.20813268163911
2023-091H               
1 57173U 23091H   26167.59382859  .00009684  00000+0  34982-3 0  9994
2 57173  97.5049 230.7809 0011266 114.8263 245.4150 15.28625976164215
2023-091J               
1 57174U 23091J   26167.59353307  .00002903  00000+0  16356-3 0  9993
2 57174  97.5054 220.6985 0014267 144.8419 215.3757 15.13923678163543
CUBEBEL 2 (EU11S)       
1 57175U 23091K   26167.59489801  .00010967  00000+0  38960-3 0  9997
2 57175  97.5051 230.8063 0011271 116.5094 243.7303 15.29139509164214
SITRO-AIS 5 (KATYS)     
1 57176U 23091L   26167.54658654  .00010006  00000+0  35226-3 0  9993
2 57176  97.5062 231.4398 0012769 105.4220 254.8432 15.29445041164246
ZORKIY-2M 1             
1 57177U 23091M   26167.55397517  .00005700  00000+0  26028-3 0  9998
2 57177  97.5090 226.5211 0014776 117.1238 243.1506 15.20897420163904
CUBESX-HSE 3 (RS42S)    
1 57178U 23091N   26167.58569384  .00011148  00000+0  37154-3 0  9990
2 57178  97.5092 233.1652 0012043  96.6947 263.5665 15.31202740164330
