OBJECT_NAME,OBJECT_ID,EPOCH,MEAN_MOTION,ECCENTRICITY,INCLINATION,RA_OF_ASC_NODE,ARG_OF_PERICENTER,MEAN_ANOMALY,EPHEMERIS_TYPE,CLASSIFICATION_TYPE,NORAD_CAT_ID,ELEMENT_SET_NO,REV_AT_EPOCH,BSTAR,MEAN_MOTION_DOT,MEAN_MOTION_DDOT
BIRKELAND,2023-001G,2026-06-16T13:28:52.970880,15.40068075,.00083493,97.3347,235.5298,107.0819,253.1342,0,U,55015,999,19225,.18666739E-3,.7388E-4,0
ION SCV-008,2023-001AU,2026-06-16T12:25:42.434400,15.28570051,.00150821,97.5715,263.8242,20.8046,339.3804,0,U,55051,999,19123,.19110383E-3,.5249E-4,0
ION SCV-007,2023-001BD,2026-06-16T04:22:17.256288,14.77552673,.00118952,97.9006,230.2170,345.6667,14.4205,0,U,55060,999,18610,.60245588E-4,.379E-5,0
HUYGENS,2023-001CN,2026-06-16T13:29:00.456576,15.40068055,.00110963,97.3252,234.7606,88.2486,272.0031,0,U,55093,999,19227,.18907368E-3,.7491E-4,0
SHARJAHSAT-1,2023-001CZ,2026-06-16T14:18:18.166176,15.49042885,.00070713,97.3173,236.3535,104.8638,255.3396,0,U,55104,999,19240,.32000572E-3,.17278E-3,0
HORUS 1,2023-025A,2026-06-16T15:03:24.354144,15.23257511,.00013077,97.3465,242.2352,149.4528,210.6785,0,U,55690,999,18396,.20375046E-3,.4758E-4,0
HORUS 2,2023-032A,2026-06-16T14:20:12.424992,15.23421882,.00022483,97.3536,243.0099,106.1526,253.9958,0,U,55844,999,18139,.20184674E-3,.4736E-4,0
GLOBAL-19,2023-041B,2026-06-15T09:50:42.386784,15.37989803,.00091226,41.9998,212.2489,350.7083,9.3586,0,U,55982,999,18165,.25105828E-3,.935E-4,0
BRO-9,2023-054H,2026-06-16T00:21:19.281600,16.05297283,.00081102,97.2917,85.4611,166.8478,193.3017,0,U,56185,999,17890,.11792934E-2,.813769E-2,.34119365E-3
ION SCV-010,2023-054Q,2026-06-16T13:40:37.680384,15.26192080,.00121112,97.3781,57.0793,199.3566,160.7214,0,U,56192,999,17610,.1470603E-3,.3737E-4,0
TELEOS-2,2023-057C,2026-06-16T14:56:58.293024,14.96410772,.00001491,9.9841,208.2717,302.3010,57.7189,0,U,56310,999,17271,.30272E-7,.688E-5,0
SNIPE 4,2023-072B,2026-06-16T13:33:50.807232,15.42330532,.00044559,97.5244,13.5505,341.0926,19.0154,0,U,56744,999,17001,.3874374E-3,.16628E-3,0
SNIPE 2,2023-072C,2026-06-16T14:38:07.369728,15.46824517,.00042415,97.5239,16.6364,16.2694,343.8691,0,U,56745,999,17015,.397467E-3,.1988E-3,0
2023-072G,2023-072G,2026-06-16T14:40:47.063712,15.50545171,.00029072,97.4897,15.4410,10.8342,349.2972,0,U,56749,999,17037,.44680774E-3,.25477E-3,0
GEISAT PRECURSOR,2023-084C,2026-06-16T15:10:08.937696,15.34643877,.00049925,97.6226,308.5662,0.0436,0.0806,0,U,56934,999,16744,.17734357E-3,.587E-4,0
BLACKJACK ACES-3,2023-084U,2026-06-16T15:25:51.236832,15.18466226,.00026107,97.6215,302.8293,38.8667,321.2754,0,U,56950,999,16708,.22096861E-3,.4483E-4,0
BLACKJACK ACES-2,2023-084Z,2026-06-16T09:15:06.925248,15.18536620,.00010507,97.6212,302.6546,73.6616,286.4734,0,U,56955,999,16705,.28859575E-3,.589E-4,0
BLACKJACK ACES-1,2023-084AA,2026-06-16T15:17:18.249792,15.18599841,.00012825,97.6203,302.6820,103.8562,256.2814,0,U,56956,999,11681,.27863105E-3,.5694E-4,0
ION SCV-011,2023-084AB,2026-06-16T14:35:43.632096,15.28841362,.00080489,98.1375,354.8335,47.4517,312.7399,0,U,56957,999,16572,.15485396E-3,.4255E-4,0
GHOST-3,2023-084AC,2026-06-16T09:18:20.305728,15.47857536,.00055132,97.6215,315.9163,297.3166,62.7522,0,U,56958,999,16789,.28031798E-3,.14494E-3,0
TOMORROW-R2,2023-084AG,2026-06-16T10:08:25.989792,16.07762760,.00083694,97.6058,331.5493,243.9184,116.1237,0,U,56962,999,16893,.61511694E-3,.496158E-2,.12303832E-3
AFR-1,2023-084AJ,2026-06-16T15:26:09.031776,15.28551385,.00100039,97.6277,304.3205,348.9393,11.1624,0,U,56964,999,16714,.14015488E-3,.3818E-4,0
METEOR-M2 3,2023-091A,2026-06-16T14:33:33.306336,14.24046773,.00043223,98.6090,222.5968,156.9353,203.2021,0,U,57166,999,15443,.21337042E-4,.6E-7,0
UMKA 1 (RS40S),2023-091G,2026-06-16T13:37:16.268160,15.20813268,.00142283,97.5049,226.2671,119.5905,240.6750,0,U,57172,999,16391,.25207188E-3,.5503E-4,0
2023-091H,2023-091H,2026-06-16T14:15:06.790176,15.28625976,.00112668,97.5049,230.7809,114.8263,245.4150,0,U,57173,999,16421,.34982039E-3,.9684E-4,0
2023-091J,2023-091J,2026-06-16T14:14:41.257248,15.13923678,.00142672,97.5054,220.6985,144.8419,215.3757,0,U,57174,999,16354,.16355938E-3,.2903E-4,0
CUBEBEL 2 (EU11S),2023-091K,2026-06-16T14:16:39.188064,15.29139509,.00112717,97.5051,230.8063,116.5094,243.7303,0,U,57175,999,16421,.38960331E-3,.10967E-3,0
SITRO-AIS 5 (KATYS),2023-091L,2026-06-16T13:07:05.077056,15.29445041,.00127697,97.5062,231.4398,105.4220,254.8432,0,U,57176,999,16424,.35226344E-3,.10006E-3,0
ZORKIY-2M 1,2023-091M,2026-06-16T13:17:43.454688,15.20897420,.0014776,97.5090,226.5211,117.1238,243.1506,0,U,57177,999,16390,.26027803E-3,.57E-4,0
CUBESX-HSE 3 (RS42S),2023-091N,2026-06-16T14:03:23.947776,15.31202740,.00120433,97.5092,233.1652,96.6947,263.5665,0,U,57178,999,16433,.37153781E-3,.11148E-3,0
